{"type": "FeatureCollection", "features": [ {"type": "Feature", "properties": {"norad_id": 66571, "name": "STARLINK-35836", "group": "last-30-days", "lat": 27.767598682966476, "lon": 138.66616913085633, "alt_km": 410.2036233541721, "timestamp": "2025-12-15T14:57:56.620707+00:00", "meta": {"OBJECT_NAME": "STARLINK-35836", "OBJECT_ID": "2025-268Q", "EPOCH": "2025-12-14T09:24:36.928512", "MEAN_MOTION": 15.50613769, "ECCENTRICITY": 0.00010445, "INCLINATION": 42.9993, "RA_OF_ASC_NODE": 111.4677, "ARG_OF_PERICENTER": 278.1688, "MEAN_ANOMALY": 81.9053, "EPHEMERIS_TYPE": 0, "CLASSIFICATION_TYPE": "U", "NORAD_CAT_ID": 66571, "ELEMENT_SET_NO": 999, "REV_AT_EPOCH": 488, "BSTAR": 0.0014797883, "MEAN_MOTION_DOT": 0.00087555, "MEAN_MOTION_DDOT": 0}, "tle": {"line1": "1 66571U 25268Q   25348.39209408  .00087555  00000+0  14798-2 0  9995", "line2": "2 66571  42.9993 111.4677 0001044 278.1688  81.9053 15.50613769  4888"}}, "geometry": {"type": "Point", "coordinates": [138.66616913085633, 27.767598682966476]}}, {"type": "Feature", "properties": {"norad_id": 66572, "name": "STARLINK-35870", "group": "last-30-days", "lat": 28.813569838258932, "lon": 140.4366064796375, "alt_km": 410.2527132159812, "timestamp": "2025-12-15T14:57:56.620717+00:00", "meta": {"OBJECT_NAME": "STARLINK-35870", "OBJECT_ID": "2025-268R", "EPOCH": "2025-12-14T09:24:07.473888", "MEAN_MOTION": 15.50608224, "ECCENTRICITY": 0.00010544, "INCLINATION": 42.9991, "RA_OF_ASC_NODE": 111.466, "ARG_OF_PERICENTER": 258.8077, "MEAN_ANOMALY": 101.2665, "EPHEMERIS_TYPE": 0, "CLASSIFICATION_TYPE": "U", "NORAD_CAT_ID": 66572, "ELEMENT_SET_NO": 999, "REV_AT_EPOCH": 488, "BSTAR": 0.0014781114, "MEAN_MOTION_DOT": 0.00087437, "MEAN_MOTION_DDOT": 0}, "tle": {"line1": "1 66572U 25268R   25348.39175317  .00087437  00000+0  14781-2 0  9998", "line2": "2 66572  42.9991 111.4660 0001054 258.8077 101.2665 15.50608224  4882"}}, "geometry": {"type": "Point", "coordinates": [140.4366064796375, 28.813569838258932]}}, {"type": "Feature", "properties": {"norad_id": 66573, "name": "STARLINK-35650", "group": "last-30-days", "lat": 30.015521232375004, "lon": 142.56387545265005, "alt_km": 409.26336165326757, "timestamp": "2025-12-15T14:57:56.620726+00:00", "meta": {"OBJECT_NAME": "STARLINK-35650", "OBJECT_ID": "2025-268S", "EPOCH": "2025-12-14T01:39:50.663232", "MEAN_MOTION": 15.50566618, "ECCENTRICITY": 7.82e-05, "INCLINATION": 42.9994, "RA_OF_ASC_NODE": 113.345, "ARG_OF_PERICENTER": 308.7789, "MEAN_ANOMALY": 51.3001, "EPHEMERIS_TYPE": 0, "CLASSIFICATION_TYPE": "U", "NORAD_CAT_ID": 66573, "ELEMENT_SET_NO": 999, "REV_AT_EPOCH": 483, "BSTAR": 0.0018861975, "MEAN_MOTION_DOT": 0.00111857, "MEAN_MOTION_DDOT": 0}, "tle": {"line1": "1 66573U 25268S   25348.06933638  .00111857  00000+0  18862-2 0  9999", "line2": "2 66573  42.9994 113.3450 0000782 308.7789  51.3001 15.50566618  4830"}}, "geometry": {"type": "Point", "coordinates": [142.56387545265005, 30.015521232375004]}}, {"type": "Feature", "properties": {"norad_id": 66574, "name": "STARLINK-35812", "group": "last-30-days", "lat": 31.101181344365543, "lon": 144.59039149404487, "alt_km": 409.34934362417516, "timestamp": "2025-12-15T14:57:56.620735+00:00", "meta": {"OBJECT_NAME": "STARLINK-35812", "OBJECT_ID": "2025-268T", "EPOCH": "2025-12-14T01:39:20.923488", "MEAN_MOTION": 15.50571155, "ECCENTRICITY": 0.00014446, "INCLINATION": 42.9999, "RA_OF_ASC_NODE": 113.3431, "ARG_OF_PERICENTER": 286.1846, "MEAN_ANOMALY": 73.8855, "EPHEMERIS_TYPE": 0, "CLASSIFICATION_TYPE": "U", "NORAD_CAT_ID": 66574, "ELEMENT_SET_NO": 999, "REV_AT_EPOCH": 483, "BSTAR": 0.002097662, "MEAN_MOTION_DOT": 0.00124662, "MEAN_MOTION_DDOT": 0}, "tle": {"line1": "1 66574U 25268T   25348.06899217  .00124662  00000+0  20977-2 0  9992", "line2": "2 66574  42.9999 113.3431 0001444 286.1846  73.8855 15.50571155  4832"}}, "geometry": {"type": "Point", "coordinates": [144.59039149404487, 31.101181344365543]}}, {"type": "Feature", "properties": {"norad_id": 66575, "name": "STARLINK-35810", "group": "last-30-days", "lat": 32.07668527128687, "lon": 146.50717607801732, "alt_km": 408.99758348851265, "timestamp": "2025-12-15T14:57:56.620745+00:00", "meta": {"OBJECT_NAME": "STARLINK-35810", "OBJECT_ID": "2025-268U", "EPOCH": "2025-12-14T01:38:51.479232", "MEAN_MOTION": 15.50571534, "ECCENTRICITY": 7.343e-05, "INCLINATION": 42.9994, "RA_OF_ASC_NODE": 113.3403, "ARG_OF_PERICENTER": 288.2643, "MEAN_ANOMALY": 71.8137, "EPHEMERIS_TYPE": 0, "CLASSIFICATION_TYPE": "U", "NORAD_CAT_ID": 66575, "ELEMENT_SET_NO": 999, "REV_AT_EPOCH": 483, "BSTAR": 0.0020886687, "MEAN_MOTION_DOT": 0.00124118, "MEAN_MOTION_DDOT": 0}, "tle": {"line1": "1 66575U 25268U   25348.06865138  .00124118  00000+0  20887-2 0  9994", "line2": "2 66575  42.9994 113.3403 0000734 288.2643  71.8137 15.50571534  4838"}}, "geometry": {"type": "Point", "coordinates": [146.50717607801732, 32.07668527128687]}}, {"type": "Feature", "properties": {"norad_id": 66576, "name": "STARLINK-35814", "group": "last-30-days", "lat": 33.044469746226554, "lon": 148.51087403740183, "alt_km": 408.9440051075744, "timestamp": "2025-12-15T14:57:56.620755+00:00", "meta": {"OBJECT_NAME": "STARLINK-35814", "OBJECT_ID": "2025-268V", "EPOCH": "2025-12-14T01:38:21.809472", "MEAN_MOTION": 15.50577135, "ECCENTRICITY": 6.713e-05, "INCLINATION": 42.9992, "RA_OF_ASC_NODE": 113.3375, "ARG_OF_PERICENTER": 268.1794, "MEAN_ANOMALY": 91.8989, "EPHEMERIS_TYPE": 0, "CLASSIFICATION_TYPE": "U", "NORAD_CAT_ID": 66576, "ELEMENT_SET_NO": 999, "REV_AT_EPOCH": 483, "BSTAR": 0.0020849721, "MEAN_MOTION_DOT": 0.0012392, "MEAN_MOTION_DDOT": 0}, "tle": {"line1": "1 66576U 25268V   25348.06830798  .00123920  00000+0  20850-2 0  9999", "line2": "2 66576  42.9992 113.3375 0000671 268.1794  91.8989 15.50577135  4839"}}, "geometry": {"type": "Point", "coordinates": [148.51087403740183, 33.044469746226554]}}, {"type": "Feature", "properties": {"norad_id": 66577, "name": "STARLINK-35815", "group": "last-30-days", "lat": 33.907047845577864, "lon": 150.39585886942777, "alt_km": 408.12994433576114, "timestamp": "2025-12-15T14:57:56.620766+00:00", "meta": {"OBJECT_NAME": "STARLINK-35815", "OBJECT_ID": "2025-268W", "EPOCH": "2025-12-14T01:37:52.474944", "MEAN_MOTION": 15.50567436, "ECCENTRICITY": 9.281e-05, "INCLINATION": 42.9989, "RA_OF_ASC_NODE": 113.3346, "ARG_OF_PERICENTER": 8.2351, "MEAN_ANOMALY": 351.8524, "EPHEMERIS_TYPE": 0, "CLASSIFICATION_TYPE": "U", "NORAD_CAT_ID": 66577, "ELEMENT_SET_NO": 999, "REV_AT_EPOCH": 483, "BSTAR": 0.0019712973, "MEAN_MOTION_DOT": 0.00117, "MEAN_MOTION_DDOT": 0}, "tle": {"line1": "1 66577U 25268W   25348.06796846  .00117000  00000+0  19713-2 0  9993", "line2": "2 66577  42.9989 113.3346 0000928   8.2351 351.8524 15.50567436  4838"}}, "geometry": {"type": "Point", "coordinates": [150.39585886942777, 33.907047845577864]}}, {"type": "Feature", "properties": {"norad_id": 66578, "name": "STARLINK-35743", "group": "last-30-days", "lat": 35.362809953964714, "lon": 153.82738999641265, "alt_km": 407.49282494556155, "timestamp": "2025-12-15T14:57:56.620776+00:00", "meta": {"OBJECT_NAME": "STARLINK-35743", "OBJECT_ID": "2025-268X", "EPOCH": "2025-12-13T17:53:34.638720", "MEAN_MOTION": 15.50625412, "ECCENTRICITY": 0.00013233, "INCLINATION": 42.9997, "RA_OF_ASC_NODE": 115.215, "ARG_OF_PERICENTER": 330.5178, "MEAN_ANOMALY": 29.5607, "EPHEMERIS_TYPE": 0, "CLASSIFICATION_TYPE": "U", "NORAD_CAT_ID": 66578, "ELEMENT_SET_NO": 999, "REV_AT_EPOCH": 478, "BSTAR": 0.0024358562, "MEAN_MOTION_DOT": 0.00145485, "MEAN_MOTION_DDOT": 0}, "tle": {"line1": "1 66578U 25268X   25347.74553980  .00145485  00000+0  24359-2 0  9998", "line2": "2 66578  42.9997 115.2150 0001323 330.5178  29.5607 15.50625412  4784"}}, "geometry": {"type": "Point", "coordinates": [153.82738999641265, 35.362809953964714]}}, {"type": "Feature", "properties": {"norad_id": 66579, "name": "STARLINK-35868", "group": "last-30-days", "lat": 35.63126804716135, "lon": 154.5036019597803, "alt_km": 408.6555459526462, "timestamp": "2025-12-15T14:57:56.620785+00:00", "meta": {"OBJECT_NAME": "STARLINK-35868", "OBJECT_ID": "2025-268Y", "EPOCH": "2025-12-14T01:36:52.892640", "MEAN_MOTION": 15.50567958, "ECCENTRICITY": 9.202e-05, "INCLINATION": 42.9993, "RA_OF_ASC_NODE": 113.3295, "ARG_OF_PERICENTER": 291.0176, "MEAN_ANOMALY": 69.0586, "EPHEMERIS_TYPE": 0, "CLASSIFICATION_TYPE": "U", "NORAD_CAT_ID": 66579, "ELEMENT_SET_NO": 999, "REV_AT_EPOCH": 483, "BSTAR": 0.0018580379, "MEAN_MOTION_DOT": 0.00110163, "MEAN_MOTION_DDOT": 0}, "tle": {"line1": "1 66579U 25268Y   25348.06727885  .00110163  00000+0  18580-2 0  9996", "line2": "2 66579  42.9993 113.3295 0000920 291.0176  69.0586 15.50567958  4832"}}, "geometry": {"type": "Point", "coordinates": [154.5036019597803, 35.63126804716135]}}, {"type": "Feature", "properties": {"norad_id": 66580, "name": "STARLINK-35872", "group": "last-30-days", "lat": 36.39385432575902, "lon": 156.49801386264502, "alt_km": 409.0860407888931, "timestamp": "2025-12-15T14:57:56.620794+00:00", "meta": {"OBJECT_NAME": "STARLINK-35872", "OBJECT_ID": "2025-268Z", "EPOCH": "2025-12-14T01:36:22.894560", "MEAN_MOTION": 15.50568275, "ECCENTRICITY": 0.00015851, "INCLINATION": 43.0001, "RA_OF_ASC_NODE": 113.3277, "ARG_OF_PERICENTER": 281.2835, "MEAN_ANOMALY": 78.7847, "EPHEMERIS_TYPE": 0, "CLASSIFICATION_TYPE": "U", "NORAD_CAT_ID": 66580, "ELEMENT_SET_NO": 999, "REV_AT_EPOCH": 483, "BSTAR": 0.0015590245, "MEAN_MOTION_DOT": 0.00092168, "MEAN_MOTION_DDOT": 0}, "tle": {"line1": "1 66580U 25268Z   25348.06693165  .00092168  00000+0  15590-2 0  9993", "line2": "2 66580  43.0001 113.3277 0001585 281.2835  78.7847 15.50568275  4837"}}, "geometry": {"type": "Point", "coordinates": [156.49801386264502, 36.39385432575902]}}]}